*******************************************************************************
Ephemeris / WWW_USER Fri Mar  7 10:24:35 2025 Pasadena, USA      / Horizons    
*******************************************************************************
Target body name: (2018 RC)                       {source: JPL#21}
Center body name: Earth (399)                     {source: DE441}
Center-site name: Mauna Kea
*******************************************************************************
Start time      : A.D. 2018-Aug-02 05:08:00.0000 UT      
Stop  time      : A.D. 2018-Aug-02 15:48:00.0000 UT      
Step-size       : 1 minutes
*******************************************************************************
Target pole/equ : undefined
Target radii    : undefined                                                    
Center geodetic : 204.5278, 19.8260847, 4.21024   {E-lon(deg),Lat(deg),Alt(km)}
Center cylindric: 204.5278, 6006.35451, 2151.0229 {E-lon(deg),Dxy(km),Dz(km)}
Center pole/equ : ITRF93                          {East-longitude positive}
Center radii    : 6378.137, 6378.137, 6356.752 km {Equator_a, b, pole_c}       
Target primary  : Sun
Vis. interferer : MOON (R_eq= 1737.400) km        {source: DE441}
Rel. light bend : Sun                             {source: DE441}
Rel. lght bnd GM: 1.3271E+11 km^3/s^2                                          
Small-body perts: Yes                             {source: SB441-N16}
Atmos refraction: NO (AIRLESS)
RA format       : HMS
Time format     : CAL 
Calendar mode   : Mixed Julian/Gregorian
RTS-only print  : NO       
EOP file        : eop.250306.p250602                                           
EOP coverage    : DATA-BASED 1962-JAN-20 TO 2025-MAR-06. PREDICTS-> 2025-JUN-01
Units conversion: 1 au= 149597870.700 km, c= 299792.458 km/s, 1 day= 86400.0 s 
Table cut-offs 1: Elevation (-90.0deg=NO ),Airmass (>38.000=NO), Daylight (YES)
Table cut-offs 2: Solar elongation (  0.0,180.0=NO ),Local Hour Angle( 0.0=NO )
Table cut-offs 3: RA/DEC angular rate (     0.0=NO )                           
*******************************************************************************
Initial IAU76/J2000 heliocentric ecliptic osculating elements (au, days, deg.):
  EPOCH=  2458369.5 ! 2018-Sep-08.00 (TDB)         Residual RMS= .84866        
   EC= .2426621660028976   QR= .647471518312811    TP= 2458473.8617576878      
   OM= 346.8893436915528   W=  145.8737085184167   IN= 1.612045057594462       
  Equivalent ICRF heliocentric cartesian coordinates (au, au/d):
   X= 9.781363708094483E-01  Y=-2.377942828764822E-01  Z=-1.040448782093900E-01
  VX= 1.501011538102481E-03 VY= 1.393070215815854E-02 VZ= 6.509326736836346E-03
Asteroid physical parameters (km, seconds, rotational period in hours):        
   GM= n.a.                RAD= n.a.               ROTPER= .16548              
   H= 24.93                G= .150                 B-V= n.a.                   
                           ALBEDO= n.a.            STYP= n.a.                  
*******************************************************************************
 Date__(UT)__HR:MN     R.A._________(ICRF)_________DEC
******************************************************
$$SOE
 2018-Aug-02 07:11     01 18 37.314942 -00 13 49.57773
 2018-Aug-02 07:12     01 18 37.362639 -00 13 49.41416
 2018-Aug-02 07:13     01 18 37.410252 -00 13 49.25060
 2018-Aug-02 07:14     01 18 37.457779 -00 13 49.08705
 2018-Aug-02 07:15     01 18 37.505221 -00 13 48.92350
 2018-Aug-02 07:16     01 18 37.552578 -00 13 48.75996
 2018-Aug-02 07:17     01 18 37.599850 -00 13 48.59642
 2018-Aug-02 07:18     01 18 37.647036 -00 13 48.43289
 2018-Aug-02 07:19     01 18 37.694136 -00 13 48.26937
 2018-Aug-02 07:20     01 18 37.741149 -00 13 48.10585
 2018-Aug-02 07:21     01 18 37.788077 -00 13 47.94233
 2018-Aug-02 07:22     01 18 37.834919 -00 13 47.77883
 2018-Aug-02 07:23     01 18 37.881673 -00 13 47.61532
 2018-Aug-02 07:24     01 18 37.928342 -00 13 47.45183
 2018-Aug-02 07:25     01 18 37.974923 -00 13 47.28833
 2018-Aug-02 07:26     01 18 38.021417 -00 13 47.12485
 2018-Aug-02 07:27     01 18 38.067824 -00 13 46.96137
 2018-Aug-02 07:28     01 18 38.114143 -00 13 46.79789
 2018-Aug-02 07:29     01 18 38.160375 -00 13 46.63442
 2018-Aug-02 07:30     01 18 38.206520 -00 13 46.47096
 2018-Aug-02 07:31     01 18 38.252576 -00 13 46.30750
 2018-Aug-02 07:32     01 18 38.298544 -00 13 46.14405
 2018-Aug-02 07:33     01 18 38.344425 -00 13 45.98060
 2018-Aug-02 07:34     01 18 38.390216 -00 13 45.81716
 2018-Aug-02 07:35     01 18 38.435920 -00 13 45.65372
 2018-Aug-02 07:36     01 18 38.481534 -00 13 45.49029
 2018-Aug-02 07:37     01 18 38.527060 -00 13 45.32686
 2018-Aug-02 07:38     01 18 38.572497 -00 13 45.16344
 2018-Aug-02 07:39     01 18 38.617845 -00 13 45.00003
 2018-Aug-02 07:40     01 18 38.663103 -00 13 44.83662
 2018-Aug-02 07:41     01 18 38.708272 -00 13 44.67321
 2018-Aug-02 07:42     01 18 38.753352 -00 13 44.50981
 2018-Aug-02 07:43     01 18 38.798341 -00 13 44.34642
 2018-Aug-02 07:44     01 18 38.843242 -00 13 44.18303
 2018-Aug-02 07:45     01 18 38.888052 -00 13 44.01965
 2018-Aug-02 07:46     01 18 38.932772 -00 13 43.85627
 2018-Aug-02 07:47     01 18 38.977401 -00 13 43.69289
 2018-Aug-02 07:48     01 18 39.021941 -00 13 43.52953
 2018-Aug-02 07:49     01 18 39.066390 -00 13 43.36616
 2018-Aug-02 07:50     01 18 39.110748 -00 13 43.20281
 2018-Aug-02 07:51     01 18 39.155015 -00 13 43.03946
 2018-Aug-02 07:52     01 18 39.199192 -00 13 42.87611
 2018-Aug-02 07:53     01 18 39.243278 -00 13 42.71277
 2018-Aug-02 07:54     01 18 39.287272 -00 13 42.54943
 2018-Aug-02 07:55     01 18 39.331176 -00 13 42.38610
 2018-Aug-02 07:56     01 18 39.374988 -00 13 42.22277
 2018-Aug-02 07:57     01 18 39.418708 -00 13 42.05945
 2018-Aug-02 07:58     01 18 39.462337 -00 13 41.89614
 2018-Aug-02 07:59     01 18 39.505874 -00 13 41.73283
 2018-Aug-02 08:00     01 18 39.549320 -00 13 41.56952
 2018-Aug-02 08:01     01 18 39.592673 -00 13 41.40622
 2018-Aug-02 08:02     01 18 39.635934 -00 13 41.24292
 2018-Aug-02 08:03     01 18 39.679104 -00 13 41.07963
 2018-Aug-02 08:04     01 18 39.722181 -00 13 40.91635
 2018-Aug-02 08:05     01 18 39.765165 -00 13 40.75307
 2018-Aug-02 08:06     01 18 39.808058 -00 13 40.58979
 2018-Aug-02 08:07     01 18 39.850857 -00 13 40.42652
 2018-Aug-02 08:08     01 18 39.893564 -00 13 40.26326
 2018-Aug-02 08:09     01 18 39.936179 -00 13 40.10000
 2018-Aug-02 08:10     01 18 39.978700 -00 13 39.93674
 2018-Aug-02 08:11     01 18 40.021129 -00 13 39.77349
 2018-Aug-02 08:12     01 18 40.063464 -00 13 39.61025
 2018-Aug-02 08:13     01 18 40.105707 -00 13 39.44701
 2018-Aug-02 08:14     01 18 40.147856 -00 13 39.28377
 2018-Aug-02 08:15     01 18 40.189912 -00 13 39.12054
 2018-Aug-02 08:16     01 18 40.231875 -00 13 38.95731
 2018-Aug-02 08:17     01 18 40.273744 -00 13 38.79409
 2018-Aug-02 08:18     01 18 40.315520 -00 13 38.63088
 2018-Aug-02 08:19  m  01 18 40.357202 -00 13 38.46766
 2018-Aug-02 08:20  m  01 18 40.398790 -00 13 38.30446
 2018-Aug-02 08:21  m  01 18 40.440285 -00 13 38.14126
 2018-Aug-02 08:22  m  01 18 40.481685 -00 13 37.97806
 2018-Aug-02 08:23  m  01 18 40.522992 -00 13 37.81487
 2018-Aug-02 08:24  m  01 18 40.564205 -00 13 37.65168
 2018-Aug-02 08:25  m  01 18 40.605324 -00 13 37.48850
 2018-Aug-02 08:26  m  01 18 40.646349 -00 13 37.32532
 2018-Aug-02 08:27  m  01 18 40.687280 -00 13 37.16215
 2018-Aug-02 08:28  m  01 18 40.728116 -00 13 36.99898
 2018-Aug-02 08:29  m  01 18 40.768858 -00 13 36.83581
 2018-Aug-02 08:30  m  01 18 40.809506 -00 13 36.67265
 2018-Aug-02 08:31  m  01 18 40.850060 -00 13 36.50950
 2018-Aug-02 08:32  m  01 18 40.890519 -00 13 36.34635
 2018-Aug-02 08:33  m  01 18 40.930883 -00 13 36.18321
 2018-Aug-02 08:34  m  01 18 40.971153 -00 13 36.02007
 2018-Aug-02 08:35  m  01 18 41.011328 -00 13 35.85693
 2018-Aug-02 08:36  m  01 18 41.051409 -00 13 35.69380
 2018-Aug-02 08:37  m  01 18 41.091395 -00 13 35.53067
 2018-Aug-02 08:38  m  01 18 41.131286 -00 13 35.36755
 2018-Aug-02 08:39  m  01 18 41.171082 -00 13 35.20443
 2018-Aug-02 08:40  m  01 18 41.210784 -00 13 35.04132
 2018-Aug-02 08:41  m  01 18 41.250391 -00 13 34.87821
 2018-Aug-02 08:42  m  01 18 41.289903 -00 13 34.71511
 2018-Aug-02 08:43  m  01 18 41.329319 -00 13 34.55201
 2018-Aug-02 08:44  m  01 18 41.368641 -00 13 34.38891
 2018-Aug-02 08:45  m  01 18 41.407868 -00 13 34.22582
 2018-Aug-02 08:46  m  01 18 41.447000 -00 13 34.06274
 2018-Aug-02 08:47  r  01 18 41.486037 -00 13 33.89966
 2018-Aug-02 08:48  m  01 18 41.524979 -00 13 33.73658
 2018-Aug-02 08:49  m  01 18 41.563825 -00 13 33.57351
 2018-Aug-02 08:50  m  01 18 41.602577 -00 13 33.41044
 2018-Aug-02 08:51  m  01 18 41.641233 -00 13 33.24737
 2018-Aug-02 08:52  m  01 18 41.679794 -00 13 33.08431
 2018-Aug-02 08:53  m  01 18 41.718260 -00 13 32.92126
 2018-Aug-02 08:54  m  01 18 41.756631 -00 13 32.75821
 2018-Aug-02 08:55  m  01 18 41.794906 -00 13 32.59516
 2018-Aug-02 08:56  m  01 18 41.833087 -00 13 32.43212
 2018-Aug-02 08:57  m  01 18 41.871172 -00 13 32.26908
 2018-Aug-02 08:58  m  01 18 41.909161 -00 13 32.10605
 2018-Aug-02 08:59  m  01 18 41.947056 -00 13 31.94302
 2018-Aug-02 09:00  m  01 18 41.984855 -00 13 31.78000
 2018-Aug-02 09:01  m  01 18 42.022559 -00 13 31.61698
 2018-Aug-02 09:02  m  01 18 42.060168 -00 13 31.45396
 2018-Aug-02 09:03  m  01 18 42.097681 -00 13 31.29095
 2018-Aug-02 09:04  m  01 18 42.135100 -00 13 31.12794
 2018-Aug-02 09:05  m  01 18 42.172423 -00 13 30.96494
 2018-Aug-02 09:06  m  01 18 42.209650 -00 13 30.80194
 2018-Aug-02 09:07  m  01 18 42.246783 -00 13 30.63894
 2018-Aug-02 09:08  m  01 18 42.283820 -00 13 30.47595
 2018-Aug-02 09:09  m  01 18 42.320762 -00 13 30.31296
 2018-Aug-02 09:10  m  01 18 42.357609 -00 13 30.14998
 2018-Aug-02 09:11  m  01 18 42.394360 -00 13 29.98700
 2018-Aug-02 09:12  m  01 18 42.431017 -00 13 29.82403
 2018-Aug-02 09:13  m  01 18 42.467578 -00 13 29.66106
